ONEWEB-0670             
1 55829U 23029AK  25261.24344483  .00000039  00000+0  70055-4 0  9995
2 55829  87.9091 343.9014 0001690  87.8993 272.2330 13.14503528123703
ONEWEB-0671             
1 55830U 23029AL  25260.80539871 -.00000041  00000+0 -13416-3 0  9997
2 55830  87.9292 359.1480 0001691 101.8750 258.2573 13.19724874122978
ONEWEB-0672             
1 55831U 23029AM  25260.74793707 -.00000195  00000+0 -51171-3 0  9991
2 55831  87.9267 328.7572 0002210  99.7964 260.3419 13.20770619125184
ONEWEB-0673             
1 55832U 23029AN  25261.23660468  .00000067  00000+0  13524-3 0  9990
2 55832  87.9298 359.0310 0001687 105.4756 254.6563 13.19725084123039
ONEWEB-0674             
1 55833U 23029AP  25260.75501643  .00000277  00000+0  71145-3 0  9992
2 55833  87.9087 343.9812 0001795  84.6423 275.4912 13.14501897123627
ONEWEB-0675             
1 55834U 23029AQ  25260.79750020 -.00000028  00000+0 -10271-3 0  9991
2 55834  87.9281 359.1616 0002030 109.1897 250.9456 13.19725340122992
ONEWEB-0720             
1 55835U 23029AR  25260.78960541  .00000095  00000+0  20425-3 0  9996
2 55835  87.9283 359.1597 0001458 102.5133 257.6163 13.19725987122914
ONEWEB-0537             
1 56046U 23043A   25261.04948854  .00000156  00000+0  37388-3 0  9994
2 56046  87.8989 283.0004 0002061  96.5005 263.6360 13.16593195123154
ONEWEB-0538             
1 56047U 23043B   25261.04313685  .00000106  00000+0  24419-3 0  9999
2 56047  87.8980 283.0133 0001856 100.9508 259.1832 13.16594624123161
ONEWEB-0546             
1 56048U 23043C   25261.03049128  .00000073  00000+0  15793-3 0  9995
2 56048  87.8989 282.9983 0002597  97.6164 262.5262 13.16594259123153
ONEWEB-0547             
1 56049U 23043D   25261.04519627  .00000094  00000+0  19557-3 0  9998
2 56049  87.9197 298.2821 0001808  97.6580 262.4759 13.21824903122273
ONEWEB-0548             
1 56050U 23043E   25261.05581378  .00000140  00000+0  33340-3 0  9991
2 56050  87.8969 283.0156 0001969  77.4940 282.6411 13.16596255123155
ONEWEB-0549             
1 56051U 23043F   25261.03651959 -.00000095  00000+0 -26037-3 0  9999
2 56051  87.9201 298.2983 0001760 102.7310 257.4021 13.21825909122270
ONEWEB-0550             
1 56052U 23043G   25261.09959644  .00000070  00000+0  13831-3 0  9997
2 56052  87.9204 298.2804 0002008  90.5629 269.5735 13.21824937122286
ONEWEB-0551             
1 56053U 23043H   25261.09815499 -.00000093  00000+0 -28028-3 0  9998
2 56053  87.9021 313.5314 0001661 100.8246 259.3071 13.15550571120624
ONEWEB-0552             
1 56054U 23043J   25260.63911231 -.00000021  00000+0 -83078-4 0  9997
2 56054  87.9203 298.3812 0001640  93.7374 266.3947 13.21826576122225
