[{"OBJECT_NAME":"ONEWEB-0670","OBJECT_ID":"2023-029AK","EPOCH":"2025-09-18T05:50:33.633312","MEAN_MOTION":13.14503528,"ECCENTRICITY":0.00016903,"INCLINATION":87.9091,"RA_OF_ASC_NODE":343.9014,"ARG_OF_PERICENTER":87.8993,"MEAN_ANOMALY":272.233,"EPHEMERIS_TYPE":0,"CLASSIFICATION_TYPE":"U","NORAD_CAT_ID":55829,"ELEMENT_SET_NO":999,"REV_AT_EPOCH":12370,"BSTAR":7.0055064e-5,"MEAN_MOTION_DOT":3.9e-7,"MEAN_MOTION_DDOT":0},{"OBJECT_NAME":"ONEWEB-0671","OBJECT_ID":"2023-029AL","EPOCH":"2025-09-17T19:19:46.448544","MEAN_MOTION":13.19724874,"ECCENTRICITY":0.00016918,"INCLINATION":87.9292,"RA_OF_ASC_NODE":359.148,"ARG_OF_PERICENTER":101.875,"MEAN_ANOMALY":258.2573,"EPHEMERIS_TYPE":0,"CLASSIFICATION_TYPE":"U","NORAD_CAT_ID":55830,"ELEMENT_SET_NO":999,"REV_AT_EPOCH":12297,"BSTAR":-0.00013415523,"MEAN_MOTION_DOT":-4.1e-7,"MEAN_MOTION_DDOT":0},{"OBJECT_NAME":"ONEWEB-0672","OBJECT_ID":"2023-029AM","EPOCH":"2025-09-17T17:57:01.762848","MEAN_MOTION":13.20770619,"ECCENTRICITY":0.00022102,"INCLINATION":87.9267,"RA_OF_ASC_NODE":328.7572,"ARG_OF_PERICENTER":99.7964,"MEAN_ANOMALY":260.3419,"EPHEMERIS_TYPE":0,"CLASSIFICATION_TYPE":"U","NORAD_CAT_ID":55831,"ELEMENT_SET_NO":999,"REV_AT_EPOCH":12518,"BSTAR":-0.00051171157,"MEAN_MOTION_DOT":-1.95e-6,"MEAN_MOTION_DDOT":0},{"OBJECT_NAME":"ONEWEB-0673","OBJECT_ID":"2023-029AN","EPOCH":"2025-09-18T05:40:42.644352","MEAN_MOTION":13.19725084,"ECCENTRICITY":0.00016878,"INCLINATION":87.9298,"RA_OF_ASC_NODE":359.031,"ARG_OF_PERICENTER":105.4756,"MEAN_ANOMALY":254.6563,"EPHEMERIS_TYPE":0,"CLASSIFICATION_TYPE":"U","NORAD_CAT_ID":55832,"ELEMENT_SET_NO":999,"REV_AT_EPOCH":12303,"BSTAR":0.00013524409,"MEAN_MOTION_DOT":6.7e-7,"MEAN_MOTION_DDOT":0},{"OBJECT_NAME":"ONEWEB-0674","OBJECT_ID":"2023-029AP","EPOCH":"2025-09-17T18:07:13.419552","MEAN_MOTION":13.14501897,"ECCENTRICITY":0.00017954,"INCLINATION":87.9087,"RA_OF_ASC_NODE":343.9812,"ARG_OF_PERICENTER":84.6423,"MEAN_ANOMALY":275.4912,"EPHEMERIS_TYPE":0,"CLASSIFICATION_TYPE":"U","NORAD_CAT_ID":55833,"ELEMENT_SET_NO":999,"REV_AT_EPOCH":12362,"BSTAR":0.00071145084,"MEAN_MOTION_DOT":2.77e-6,"MEAN_MOTION_DDOT":0},{"OBJECT_NAME":"ONEWEB-0675","OBJECT_ID":"2023-029AQ","EPOCH":"2025-09-17T19:08:24.017280","MEAN_MOTION":13.1972534,"ECCENTRICITY":0.00020308,"INCLINATION":87.9281,"RA_OF_ASC_NODE":359.1616,"ARG_OF_PERICENTER":109.1897,"MEAN_ANOMALY":250.9456,"EPHEMERIS_TYPE":0,"CLASSIFICATION_TYPE":"U","NORAD_CAT_ID":55834,"ELEMENT_SET_NO":999,"REV_AT_EPOCH":12299,"BSTAR":-0.00010270508,"MEAN_MOTION_DOT":-2.8e-7,"MEAN_MOTION_DDOT":0},{"OBJECT_NAME":"ONEWEB-0720","OBJECT_ID":"2023-029AR","EPOCH":"2025-09-17T18:57:01.907424","MEAN_MOTION":13.19725987,"ECCENTRICITY":0.00014588,"INCLINATION":87.9283,"RA_OF_ASC_NODE":359.1597,"ARG_OF_PERICENTER":102.5133,"MEAN_ANOMALY":257.6163,"EPHEMERIS_TYPE":0,"CLASSIFICATION_TYPE":"U","NORAD_CAT_ID":55835,"ELEMENT_SET_NO":999,"REV_AT_EPOCH":12291,"BSTAR":0.00020425072,"MEAN_MOTION_DOT":9.5e-7,"MEAN_MOTION_DDOT":0},{"OBJECT_NAME":"ONEWEB-0537","OBJECT_ID":"2023-043A","EPOCH":"2025-09-18T01:11:15.809856","MEAN_MOTION":13.16593195,"ECCENTRICITY":0.00020617,"INCLINATION":87.8989,"RA_OF_ASC_NODE":283.0004,"ARG_OF_PERICENTER":96.5005,"MEAN_ANOMALY":263.636,"EPHEMERIS_TYPE":0,"CLASSIFICATION_TYPE":"U","NORAD_CAT_ID":56046,"ELEMENT_SET_NO":999,"REV_AT_EPOCH":12315,"BSTAR":0.00037388043,"MEAN_MOTION_DOT":1.56e-6,"MEAN_MOTION_DDOT":0},{"OBJECT_NAME":"ONEWEB-0538","OBJECT_ID":"2023-043B","EPOCH":"2025-09-18T01:02:07.023840","MEAN_MOTION":13.16594624,"ECCENTRICITY":0.00018567,"INCLINATION":87.898,"RA_OF_ASC_NODE":283.0133,"ARG_OF_PERICENTER":100.9508,"MEAN_ANOMALY":259.1832,"EPHEMERIS_TYPE":0,"CLASSIFICATION_TYPE":"U","NORAD_CAT_ID":56047,"ELEMENT_SET_NO":999,"REV_AT_EPOCH":12316,"BSTAR":0.00024419133,"MEAN_MOTION_DOT":1.06e-6,"MEAN_MOTION_DDOT":0},{"OBJECT_NAME":"ONEWEB-0546","OBJECT_ID":"2023-043C","EPOCH":"2025-09-18T00:43:54.446592","MEAN_MOTION":13.16594259,"ECCENTRICITY":0.00025972,"INCLINATION":87.8989,"RA_OF_ASC_NODE":282.9983,"ARG_OF_PERICENTER":97.6164,"MEAN_ANOMALY":262.5262,"EPHEMERIS_TYPE":0,"CLASSIFICATION_TYPE":"U","NORAD_CAT_ID":56048,"ELEMENT_SET_NO":999,"REV_AT_EPOCH":12315,"BSTAR":0.00015793474,"MEAN_MOTION_DOT":7.3e-7,"MEAN_MOTION_DDOT":0},{"OBJECT_NAME":"ONEWEB-0547","OBJECT_ID":"2023-043D","EPOCH":"2025-09-18T01:05:04.957728","MEAN_MOTION":13.21824903,"ECCENTRICITY":0.00018088,"INCLINATION":87.9197,"RA_OF_ASC_NODE":298.2821,"ARG_OF_PERICENTER":97.658,"MEAN_ANOMALY":262.4759,"EPHEMERIS_TYPE":0,"CLASSIFICATION_TYPE":"U","NORAD_CAT_ID":56049,"ELEMENT_SET_NO":999,"REV_AT_EPOCH":12227,"BSTAR":0.00019556679,"MEAN_MOTION_DOT":9.4e-7,"MEAN_MOTION_DDOT":0},{"OBJECT_NAME":"ONEWEB-0548","OBJECT_ID":"2023-043E","EPOCH":"2025-09-18T01:20:22.310592","MEAN_MOTION":13.16596255,"ECCENTRICITY":0.00019692,"INCLINATION":87.8969,"RA_OF_ASC_NODE":283.0156,"ARG_OF_PERICENTER":77.494,"MEAN_ANOMALY":282.6411,"EPHEMERIS_TYPE":0,"CLASSIFICATION_TYPE":"U","NORAD_CAT_ID":56050,"ELEMENT_SET_NO":999,"REV_AT_EPOCH":12315,"BSTAR":0.00033340367,"MEAN_MOTION_DOT":1.4e-6,"MEAN_MOTION_DDOT":0},{"OBJECT_NAME":"ONEWEB-0549","OBJECT_ID":"2023-043F","EPOCH":"2025-09-18T00:52:35.292576","MEAN_MOTION":13.21825909,"ECCENTRICITY":0.00017609,"INCLINATION":87.9201,"RA_OF_ASC_NODE":298.2983,"ARG_OF_PERICENTER":102.731,"MEAN_ANOMALY":257.4021,"EPHEMERIS_TYPE":0,"CLASSIFICATION_TYPE":"U","NORAD_CAT_ID":56051,"ELEMENT_SET_NO":999,"REV_AT_EPOCH":12227,"BSTAR":-0.00026036723,"MEAN_MOTION_DOT":-9.5e-7,"MEAN_MOTION_DDOT":0},{"OBJECT_NAME":"ONEWEB-0550","OBJECT_ID":"2023-043G","EPOCH":"2025-09-18T02:23:25.132416","MEAN_MOTION":13.21824937,"ECCENTRICITY":0.00020082,"INCLINATION":87.9204,"RA_OF_ASC_NODE":298.2804,"ARG_OF_PERICENTER":90.5629,"MEAN_ANOMALY":269.5735,"EPHEMERIS_TYPE":0,"CLASSIFICATION_TYPE":"U","NORAD_CAT_ID":56052,"ELEMENT_SET_NO":999,"REV_AT_EPOCH":12228,"BSTAR":0.0001383094,"MEAN_MOTION_DOT":7.0e-7,"MEAN_MOTION_DDOT":0},{"OBJECT_NAME":"ONEWEB-0551","OBJECT_ID":"2023-043H","EPOCH":"2025-09-18T02:21:20.591136","MEAN_MOTION":13.15550571,"ECCENTRICITY":0.00016619,"INCLINATION":87.9021,"RA_OF_ASC_NODE":313.5314,"ARG_OF_PERICENTER":100.8246,"MEAN_ANOMALY":259.3071,"EPHEMERIS_TYPE":0,"CLASSIFICATION_TYPE":"U","NORAD_CAT_ID":56053,"ELEMENT_SET_NO":999,"REV_AT_EPOCH":12062,"BSTAR":-0.00028027791,"MEAN_MOTION_DOT":-9.3e-7,"MEAN_MOTION_DDOT":0},{"OBJECT_NAME":"ONEWEB-0552","OBJECT_ID":"2023-043J","EPOCH":"2025-09-17T15:20:19.303584","MEAN_MOTION":13.21826576,"ECCENTRICITY":0.00016406,"INCLINATION":87.9203,"RA_OF_ASC_NODE":298.3812,"ARG_OF_PERICENTER":93.7374,"MEAN_ANOMALY":266.3947,"EPHEMERIS_TYPE":0,"CLASSIFICATION_TYPE":"U","NORAD_CAT_ID":56054,"ELEMENT_SET_NO":999,"REV_AT_EPOCH":12222,"BSTAR":-8.3078232e-5,"MEAN_MOTION_DOT":-2.1e-7,"MEAN_MOTION_DDOT":0}]
